{"type": "FeatureCollection", "features": [ {"type": "Feature", "properties": {"norad_id": 35647, "name": "COSMOS 2251 DEB", "group": "cosmos-2251-debris", "lat": -63.69471369031431, "lon": -89.91623423693989, "alt_km": 766.9775433149507, "timestamp": "2025-12-06T20:37:56.472012+00:00", "meta": {"OBJECT_NAME": "COSMOS 2251 DEB", "OBJECT_ID": "1993-036ANN", "EPOCH": "2025-12-06T04:19:05.390400", "MEAN_MOTION": 14.4357388, "ECCENTRICITY": 0.0045144, "INCLINATION": 74.0229, "RA_OF_ASC_NODE": 306.7667, "ARG_OF_PERICENTER": 47.5691, "MEAN_ANOMALY": 312.927, "EPHEMERIS_TYPE": 0, "CLASSIFICATION_TYPE": "U", "NORAD_CAT_ID": 35647, "ELEMENT_SET_NO": 999, "REV_AT_EPOCH": 67569, "BSTAR": 0.0014529978, "MEAN_MOTION_DOT": 4.961e-05, "MEAN_MOTION_DDOT": 0}, "tle": {"line1": "1 35647U 93036ANN 25340.17992350  .00004961  00000+0  14530-2 0  9990", "line2": "2 35647  74.0229 306.7667 0045144  47.5691 312.9270 14.43573880675696"}}, "geometry": {"type": "Point", "coordinates": [-89.91623423693989, -63.69471369031431]}}, {"type": "Feature", "properties": {"norad_id": 35650, "name": "COSMOS 2251 DEB", "group": "cosmos-2251-debris", "lat": -19.71134353783789, "lon": 24.63568159082727, "alt_km": 625.5284585811141, "timestamp": "2025-12-06T20:37:56.472023+00:00", "meta": {"OBJECT_NAME": "COSMOS 2251 DEB", "OBJECT_ID": "1993-036ANR", "EPOCH": "2025-12-06T03:03:03.071232", "MEAN_MOTION": 14.83360179, "ECCENTRICITY": 0.00144091, "INCLINATION": 74.0465, "RA_OF_ASC_NODE": 31.9672, "ARG_OF_PERICENTER": 83.0445, "MEAN_ANOMALY": 306.3441, "EPHEMERIS_TYPE": 0, "CLASSIFICATION_TYPE": "U", "NORAD_CAT_ID": 35650, "ELEMENT_SET_NO": 999, "REV_AT_EPOCH": 87536, "BSTAR": 0.0025128272, "MEAN_MOTION_DOT": 0.00020669, "MEAN_MOTION_DDOT": 0}, "tle": {"line1": "1 35650U 93036ANR 25340.12711888  .00020669  00000+0  25128-2 0  9992", "line2": "2 35650  74.0465  31.9672 0014409  83.0445 306.3441 14.83360179875369"}}, "geometry": {"type": "Point", "coordinates": [24.63568159082727, -19.71134353783789]}}, {"type": "Feature", "properties": {"norad_id": 35660, "name": "COSMOS 2251 DEB", "group": "cosmos-2251-debris", "lat": -73.77236022033513, "lon": 43.79357258575976, "alt_km": 721.2681225562865, "timestamp": "2025-12-06T20:37:56.472033+00:00", "meta": {"OBJECT_NAME": "COSMOS 2251 DEB", "OBJECT_ID": "1993-036APB", "EPOCH": "2025-12-06T05:18:17.773056", "MEAN_MOTION": 14.49891822, "ECCENTRICITY": 0.00183215, "INCLINATION": 74.0388, "RA_OF_ASC_NODE": 145.4664, "ARG_OF_PERICENTER": 294.6596, "MEAN_ANOMALY": 240.4039, "EPHEMERIS_TYPE": 0, "CLASSIFICATION_TYPE": "U", "NORAD_CAT_ID": 35660, "ELEMENT_SET_NO": 999, "REV_AT_EPOCH": 65776, "BSTAR": 0.00076820302, "MEAN_MOTION_DOT": 2.948e-05, "MEAN_MOTION_DDOT": 0}, "tle": {"line1": "1 35660U 93036APB 25340.22103904  .00002948  00000+0  76820-3 0  9994", "line2": "2 35660  74.0388 145.4664 0018321 294.6596 240.4039 14.49891822657769"}}, "geometry": {"type": "Point", "coordinates": [43.79357258575976, -73.77236022033513]}}, {"type": "Feature", "properties": {"norad_id": 35661, "name": "COSMOS 2251 DEB", "group": "cosmos-2251-debris", "lat": -29.765742207106374, "lon": -79.11383274923239, "alt_km": 554.484371447229, "timestamp": "2025-12-06T20:37:56.472044+00:00", "meta": {"OBJECT_NAME": "COSMOS 2251 DEB", "OBJECT_ID": "1993-036APC", "EPOCH": "2025-12-05T14:36:34.984800", "MEAN_MOTION": 14.86364336, "ECCENTRICITY": 0.0088867, "INCLINATION": 74.0135, "RA_OF_ASC_NODE": 93.941, "ARG_OF_PERICENTER": 199.9013, "MEAN_ANOMALY": 159.8694, "EPHEMERIS_TYPE": 0, "CLASSIFICATION_TYPE": "U", "NORAD_CAT_ID": 35661, "ELEMENT_SET_NO": 999, "REV_AT_EPOCH": 87762, "BSTAR": 0.0019197876, "MEAN_MOTION_DOT": 0.00018202, "MEAN_MOTION_DDOT": 0}, "tle": {"line1": "1 35661U 93036APC 25339.60873825  .00018202  00000+0  19198-2 0  9995", "line2": "2 35661  74.0135  93.9410 0088867 199.9013 159.8694 14.86364336877624"}}, "geometry": {"type": "Point", "coordinates": [-79.11383274923239, -29.765742207106374]}}, {"type": "Feature", "properties": {"norad_id": 35663, "name": "COSMOS 2251 DEB", "group": "cosmos-2251-debris", "lat": 2.061683939376098, "lon": -44.589591878654154, "alt_km": 673.3735283628812, "timestamp": "2025-12-06T20:37:56.472055+00:00", "meta": {"OBJECT_NAME": "COSMOS 2251 DEB", "OBJECT_ID": "1993-036APE", "EPOCH": "2025-11-30T11:26:45.384288", "MEAN_MOTION": 14.65332391, "ECCENTRICITY": 0.00074535, "INCLINATION": 74.0171, "RA_OF_ASC_NODE": 148.2949, "ARG_OF_PERICENTER": 219.2944, "MEAN_ANOMALY": 140.7685, "EPHEMERIS_TYPE": 0, "CLASSIFICATION_TYPE": "U", "NORAD_CAT_ID": 35663, "ELEMENT_SET_NO": 999, "REV_AT_EPOCH": 73202, "BSTAR": 0.0015821861, "MEAN_MOTION_DOT": 8.525e-05, "MEAN_MOTION_DDOT": 0}, "tle": {"line1": "1 35663U 93036APE 25334.47691417  .00008525  00000+0  15822-2 0  9999", "line2": "2 35663  74.0171 148.2949 0007453 219.2944 140.7685 14.65332391732024"}}, "geometry": {"type": "Point", "coordinates": [-44.589591878654154, 2.061683939376098]}}, {"type": "Feature", "properties": {"norad_id": 35667, "name": "COSMOS 2251 DEB", "group": "cosmos-2251-debris", "lat": -14.060258714621337, "lon": 147.2096094829242, "alt_km": 707.6197228779638, "timestamp": "2025-12-06T20:37:56.472065+00:00", "meta": {"OBJECT_NAME": "COSMOS 2251 DEB", "OBJECT_ID": "1993-036APJ", "EPOCH": "2025-12-03T05:32:00.225024", "MEAN_MOTION": 14.59863315, "ECCENTRICITY": 0.0020461, "INCLINATION": 74.0542, "RA_OF_ASC_NODE": 158.2289, "ARG_OF_PERICENTER": 220.1527, "MEAN_ANOMALY": 139.8128, "EPHEMERIS_TYPE": 0, "CLASSIFICATION_TYPE": "U", "NORAD_CAT_ID": 35667, "ELEMENT_SET_NO": 999, "REV_AT_EPOCH": 70664, "BSTAR": 0.0013542, "MEAN_MOTION_DOT": 6.475e-05, "MEAN_MOTION_DDOT": 0}, "tle": {"line1": "1 35667U 93036APJ 25337.23055816  .00006475  00000+0  13542-2 0  9996", "line2": "2 35667  74.0542 158.2289 0020461 220.1527 139.8128 14.59863315706648"}}, "geometry": {"type": "Point", "coordinates": [147.2096094829242, -14.060258714621337]}}, {"type": "Feature", "properties": {"norad_id": 35668, "name": "COSMOS 2251 DEB", "group": "cosmos-2251-debris", "lat": 14.640783690890034, "lon": -123.90601299683799, "alt_km": 634.0163913181887, "timestamp": "2025-12-06T20:37:56.472076+00:00", "meta": {"OBJECT_NAME": "COSMOS 2251 DEB", "OBJECT_ID": "1993-036APK", "EPOCH": "2025-12-06T09:05:00.792096", "MEAN_MOTION": 14.63958506, "ECCENTRICITY": 0.0083061, "INCLINATION": 74.0458, "RA_OF_ASC_NODE": 232.7313, "ARG_OF_PERICENTER": 339.3101, "MEAN_ANOMALY": 20.4709, "EPHEMERIS_TYPE": 0, "CLASSIFICATION_TYPE": "U", "NORAD_CAT_ID": 35668, "ELEMENT_SET_NO": 999, "REV_AT_EPOCH": 87554, "BSTAR": 0.00057387566, "MEAN_MOTION_DOT": 3.128e-05, "MEAN_MOTION_DDOT": 0}, "tle": {"line1": "1 35668U 93036APK 25340.37848139  .00003128  00000+0  57388-3 0  9993", "line2": "2 35668  74.0458 232.7313 0083061 339.3101  20.4709 14.63958506875545"}}, "geometry": {"type": "Point", "coordinates": [-123.90601299683799, 14.640783690890034]}}, {"type": "Feature", "properties": {"norad_id": 35669, "name": "COSMOS 2251 DEB", "group": "cosmos-2251-debris", "lat": 73.55173630068055, "lon": -89.96927713827912, "alt_km": 1322.470630896093, "timestamp": "2025-12-06T20:37:56.472087+00:00", "meta": {"OBJECT_NAME": "COSMOS 2251 DEB", "OBJECT_ID": "1993-036APL", "EPOCH": "2025-12-03T21:23:42.149184", "MEAN_MOTION": 13.57134195, "ECCENTRICITY": 0.0387239, "INCLINATION": 73.852, "RA_OF_ASC_NODE": 173.7821, "ARG_OF_PERICENTER": 287.3475, "MEAN_ANOMALY": 68.5633, "EPHEMERIS_TYPE": 0, "CLASSIFICATION_TYPE": "U", "NORAD_CAT_ID": 35669, "ELEMENT_SET_NO": 999, "REV_AT_EPOCH": 60669, "BSTAR": 0.0017031, "MEAN_MOTION_DOT": 1.95e-05, "MEAN_MOTION_DDOT": 0}, "tle": {"line1": "1 35669U 93036APL 25337.89146006  .00001950  00000+0  17031-2 0  9992", "line2": "2 35669  73.8520 173.7821 0387239 287.3475  68.5633 13.57134195606690"}}, "geometry": {"type": "Point", "coordinates": [-89.96927713827912, 73.55173630068055]}}, {"type": "Feature", "properties": {"norad_id": 35670, "name": "COSMOS 2251 DEB", "group": "cosmos-2251-debris", "lat": 29.562673194013144, "lon": 85.86254790520144, "alt_km": 559.4009383174425, "timestamp": "2025-12-06T20:37:56.472097+00:00", "meta": {"OBJECT_NAME": "COSMOS 2251 DEB", "OBJECT_ID": "1993-036APM", "EPOCH": "2025-12-03T00:51:50.152032", "MEAN_MOTION": 14.93482129, "ECCENTRICITY": 0.00369334, "INCLINATION": 73.8945, "RA_OF_ASC_NODE": 84.1864, "ARG_OF_PERICENTER": 48.0359, "MEAN_ANOMALY": 312.396, "EPHEMERIS_TYPE": 0, "CLASSIFICATION_TYPE": "U", "NORAD_CAT_ID": 35670, "ELEMENT_SET_NO": 999, "REV_AT_EPOCH": 87582, "BSTAR": 0.001906882, "MEAN_MOTION_DOT": 0.00020358, "MEAN_MOTION_DDOT": 0}, "tle": {"line1": "1 35670U 93036APM 25337.03599713  .00020358  00000+0  19069-2 0  9993", "line2": "2 35670  73.8945  84.1864 0036933  48.0359 312.3960 14.93482129875820"}}, "geometry": {"type": "Point", "coordinates": [85.86254790520144, 29.562673194013144]}}, {"type": "Feature", "properties": {"norad_id": 35671, "name": "COSMOS 2251 DEB", "group": "cosmos-2251-debris", "lat": -7.68411830832176, "lon": 88.1235566271215, "alt_km": 732.8751446769475, "timestamp": "2025-12-06T20:37:56.472108+00:00", "meta": {"OBJECT_NAME": "COSMOS 2251 DEB", "OBJECT_ID": "1993-036APN", "EPOCH": "2025-12-06T14:08:17.871072", "MEAN_MOTION": 14.48331693, "ECCENTRICITY": 0.00415098, "INCLINATION": 74.0176, "RA_OF_ASC_NODE": 90.8468, "ARG_OF_PERICENTER": 265.9421, "MEAN_ANOMALY": 115.4447, "EPHEMERIS_TYPE": 0, "CLASSIFICATION_TYPE": "U", "NORAD_CAT_ID": 35671, "ELEMENT_SET_NO": 999, "REV_AT_EPOCH": 86674, "BSTAR": 0.00044501062, "MEAN_MOTION_DOT": 1.654e-05, "MEAN_MOTION_DDOT": 0}, "tle": {"line1": "1 35671U 93036APN 25340.58909573  .00001654  00000+0  44501-3 0  9995", "line2": "2 35671  74.0176  90.8468 0041509 265.9421 115.4447 14.48331693866741"}}, "geometry": {"type": "Point", "coordinates": [88.1235566271215, -7.68411830832176]}}]}